{
    "type": "Feature",
    "properties": {
        "Farm": "Demo Namibia Farm",
        "Created": "20260703_203615"
    },
    "geometry": {
        "type": "Polygon",
        "coordinates": [
            [
                [
                    17.078200000000002,
                    -22.5647
                ],
                [
                    17.0882,
                    -22.5647
                ],
                [
                    17.0882,
                    -22.5547
                ],
                [
                    17.078200000000002,
                    -22.5547
                ],
                [
                    17.078200000000002,
                    -22.5647
                ]
            ]
        ]
    }
}